[{"OBJECT_NAME":"STARLINK-1764","OBJECT_ID":"2020-062U","EPOCH":"2026-03-09T21:50:11.933376","MEAN_MOTION":15.66750924,"ECCENTRICITY":4.732e-5,"INCLINATION":53.045,"RA_OF_ASC_NODE":315.9893,"ARG_OF_PERICENTER":302.3182,"MEAN_ANOMALY":57.7787,"EPHEMERIS_TYPE":0,"CLASSIFICATION_TYPE":"U","NORAD_CAT_ID":46343,"ELEMENT_SET_NO":999,"REV_AT_EPOCH":30518,"BSTAR":0.00099332612,"MEAN_MOTION_DOT":0.00107455,"MEAN_MOTION_DDOT":0},{"OBJECT_NAME":"PACE-1","OBJECT_ID":"2021-059AG","EPOCH":"2026-03-09T10:52:20.672256","MEAN_MOTION":15.66489825,"ECCENTRICITY":0.00026713,"INCLINATION":97.6852,"RA_OF_ASC_NODE":256.4197,"ARG_OF_PERICENTER":313.2963,"MEAN_ANOMALY":46.8073,"EPHEMERIS_TYPE":0,"CLASSIFICATION_TYPE":"U","NORAD_CAT_ID":48909,"ELEMENT_SET_NO":999,"REV_AT_EPOCH":26212,"BSTAR":0.00052434786,"MEAN_MOTION_DOT":0.000547,"MEAN_MOTION_DDOT":0}]
